{"assets":[{"asset_fingerprint":"196362fa8b3fb7c47bf5b1710d771d8d1e2ccfd280612731d853187cac4af4a2","classification_type":"U","international_designator":"1998-067A","name":"ISS (ZARYA)","norad_catalog_id":25544,"object_type":"PAYLOAD","orbit":{"arg_perigee_deg":74.0974,"bstar":0.00024762,"eccentricity":0.0006703,"element_set_no":999,"epoch_utc":"2026-04-01T00:00:00Z","inclination_deg":51.6403,"mean_anomaly_deg":54.4706,"mean_motion_ddot_rev_per_day3":0.0,"mean_motion_dot_rev_per_day2":0.00016717,"mean_motion_rev_per_day":15.49104478,"raan_deg":176.1734,"rev_at_epoch":50012},"satellite_id":"sat:norad-25544:iss--zarya","schema_version":"1.0.0","source":{"catalog_group":"demo-phase1","provider":"celestrak","raw_record_index":0,"raw_record_sha256":"c485d55fe9682269a2aa05c9a6fb602813141eff6c4a794dcafb89c3b00f9892","snapshot_id":"raw:celestrak:demo-phase1:2026-04-01t00-00-00z","source_mode":"fixture"}},{"asset_fingerprint":"82af5f3ed335baedce6354d833d14fa69a2709b94f5e87ebd7fbee1957da3e48","classification_type":"U","international_designator":"2015-028A","name":"SENTINEL-2A","norad_catalog_id":40697,"object_type":"PAYLOAD","orbit":{"arg_perigee_deg":92.3845,"bstar":1.245e-05,"eccentricity":0.0001127,"element_set_no":999,"epoch_utc":"2026-04-01T00:00:00Z","inclination_deg":98.5658,"mean_anomaly_deg":267.7331,"mean_motion_ddot_rev_per_day3":0.0,"mean_motion_dot_rev_per_day2":1.4e-07,"mean_motion_rev_per_day":14.30816512,"raan_deg":159.2149,"rev_at_epoch":56321},"satellite_id":"sat:norad-40697:sentinel-2a","schema_version":"1.0.0","source":{"catalog_group":"demo-phase1","provider":"celestrak","raw_record_index":1,"raw_record_sha256":"b24c998c64a80efd8f2bb51bf773a86bbd884f40166a2090f2c3a2d7887b5e7f","snapshot_id":"raw:celestrak:demo-phase1:2026-04-01t00-00-00z","source_mode":"fixture"}},{"asset_fingerprint":"c0a033b1960ba15b40ea5b9e015fa82a8d91724943c8167dd4d818dc859cad9a","classification_type":"U","international_designator":"2017-073A","name":"NOAA 20","norad_catalog_id":43013,"object_type":"PAYLOAD","orbit":{"arg_perigee_deg":87.1204,"bstar":1.01e-05,"eccentricity":0.0001362,"element_set_no":999,"epoch_utc":"2026-04-01T00:00:00Z","inclination_deg":98.7421,"mean_anomaly_deg":272.4417,"mean_motion_ddot_rev_per_day3":0.0,"mean_motion_dot_rev_per_day2":1.3e-07,"mean_motion_rev_per_day":14.19573451,"raan_deg":132.1572,"rev_at_epoch":43218},"satellite_id":"sat:norad-43013:noaa-20","schema_version":"1.0.0","source":{"catalog_group":"demo-phase1","provider":"celestrak","raw_record_index":2,"raw_record_sha256":"febf589f2e9ed9535ab9ae134562df685d481134e978b14a6fe54ea240079143","snapshot_id":"raw:celestrak:demo-phase1:2026-04-01t00-00-00z","source_mode":"fixture"}}],"bundle_fingerprint":"b8c95b7c343afc77161d7163484ce33929a71906a9c1a015e830475249282564","bundle_id":"eph:demo-phase1:raw-celestrak-demo-phase1-2026-04-01t00-00-00z","compilation":{"compiled_at_utc":"2026-04-01T00:00:00Z","compiler_version":"orbital-shepherd-ephemeris/1.0.0"},"schema_version":"1.0.0","source":{"catalog_group":"demo-phase1","fetched_at_utc":"2026-04-01T00:00:00Z","provider":"celestrak","raw_snapshot_path":"data/fixtures/ephemeris/raw/raw:celestrak:demo-phase1:2026-04-01t00-00-00z--f7955187d221.json","raw_snapshot_sha256":"f7955187d22190802a9a60cbc03396679eb65c6364a819d5a7000f9726b545b9","snapshot_id":"raw:celestrak:demo-phase1:2026-04-01t00-00-00z","source_mode":"fixture"}}
